NORAD_CAT_ID,OBJECT_NAME,OBJECT_TYPE,EPOCH,MEAN_MOTION,ECCENTRICITY,INCLINATION,RA_OF_ASC_NODE,ARG_OF_PERICENTER,MEAN_ANOMALY,BSTAR,MEAN_MOTION_DOT,MEAN_MOTION_DDOT,TLE_LINE0,TLE_LINE1,TLE_LINE2,SEMIMAJOR_AXIS,PERIOD,APOGEE,PERIGEE,DECAYED
51854.0,STARLINK-3541,PAYLOAD,2024-02-05 16:43:53,15.08836607,0.0001303,53.217,204.3259,89.1053,271.0089,5.7031e-05,6.2e-06,0.0,0 STARLINK-3541,1 51854U 22022C   24036.69714254  .00000620  00000-0  57031-4 0  9992,2 51854  53.2170 204.3259 0001303  89.1053 271.0089 15.08836607107831,6917.891,95.438,540.657,538.854,0.0
51854.0,STARLINK-3541,PAYLOAD,2024-02-06 10:13:06,15.08867586,0.0001938,53.2174,201.0493,59.3999,300.7184,-6.8171e-05,-1.374e-05,0.0,0 STARLINK-3541,1 51854U 22022C   24037.42576596 -.00001374  00000-0 -68171-4 0  9995,2 51854  53.2174 201.0493 0001938  59.3999 300.7184 15.08867586107949,6917.796,95.436,541.002,538.32,0.0
51854.0,STARLINK-3541,PAYLOAD,2024-02-06 18:10:03,15.08830898,0.0001282,53.2175,199.5721,81.9503,278.1635,-4.2151e-05,-9.58e-06,0.0,0 STARLINK-3541,1 51854U 22022C   24037.75698465 -.00000958  00000-0 -42151-4 0  9998,2 51854  53.2175 199.5721 0001282  81.9503 278.1635 15.08830898107999,6917.908,95.438,540.66,538.886,0.0
51854.0,STARLINK-3541,PAYLOAD,2024-02-07 10:03:54,15.08840788,0.0002797,53.2168,196.5968,146.9109,213.2059,-0.00021166,-3.656e-05,0.0,0 STARLINK-3541,1 51854U 22022C   24038.41938645 -.00003656  00000-0 -21166-3 0  9999,2 51854  53.2168 196.5968 0002797 146.9109 213.2059 15.08840788108098,6917.878,95.438,541.678,537.808,0.0
51854.0,STARLINK-3541,PAYLOAD,2024-02-07 14:50:04,15.08828938,0.0001358,53.2176,195.7055,100.1448,259.9697,-3.7731e-05,-8.88e-06,0.0,0 STARLINK-3541,1 51854U 22022C   24038.61811105 -.00000888  00000-0 -37731-4 0  9992,2 51854  53.2176 195.7055 0001358 100.1448 259.9697 15.08828938108127,6917.914,95.438,540.719,538.84,0.0
51854.0,STARLINK-3541,PAYLOAD,2024-02-07 18:00:50,15.08836024,0.0001534,53.2174,195.1111,111.1946,248.921,-7.1623e-05,-1.428e-05,0.0,0 STARLINK-3541,1 51854U 22022C   24038.75058784 -.00001428  00000-0 -71623-4 0  9992,2 51854  53.2174 195.1111 0001534 111.1946 248.9210 15.08836024108149,6917.893,95.438,540.819,538.696,0.0
51854.0,STARLINK-3541,PAYLOAD,2024-02-08 14:40:50,15.08839947,0.0001251,53.2171,191.2444,80.0202,280.0931,0.00021337,3.11e-05,0.0,0 STARLINK-3541,1 51854U 22022C   24039.61169794  .00003110  00000-0  21337-3 0  9996,2 51854  53.2171 191.2444 0001251  80.0202 280.0931 15.08839947108275,6917.881,95.438,540.611,538.88,0.0
51854.0,STARLINK-3541,PAYLOAD,2024-02-08 16:16:13,15.08842317,0.0001303,53.2174,190.9473,79.4168,280.6971,0.00023749,3.494e-05,0.0,0 STARLINK-3541,1 51854U 22022C   24039.67793682  .00003494  00000-0  23749-3 0  9995,2 51854  53.2174 190.9473 0001303  79.4168 280.6971 15.08842317108283,6917.873,95.437,540.64,538.837,0.0
51854.0,STARLINK-3541,PAYLOAD,2024-02-09 14:31:38,15.08841729,0.0001252,53.218,186.7835,80.7241,279.3893,0.000134,1.845e-05,0.0,0 STARLINK-3541,1 51854U 22022C   24040.60530272  .00001845  00000-0  13400-3 0  9995,2 51854  53.2180 186.7835 0001252  80.7241 279.3893 15.08841729108425,6917.875,95.437,540.606,538.874,0.0
51854.0,STARLINK-3541,PAYLOAD,2024-02-09 19:17:47,15.08846053,0.0001543,53.2163,185.8901,76.815,283.3014,0.00017673,2.526e-05,0.0,0 STARLINK-3541,1 51854U 22022C   24040.80401905  .00002526  00000-0  17673-3 0  9990,2 51854  53.2163 185.8901 0001543  76.8150 283.3014 15.08846053108456,6917.862,95.437,540.794,538.659,0.0
51854.0,STARLINK-3541,PAYLOAD,2024-02-10 09:36:16,15.08838664,0.0001531,53.2153,183.2094,100.0608,260.0557,4.4095e-05,4.14e-06,0.0,0 STARLINK-3541,1 51854U 22022C   24041.40018543  .00000414  00000-0  44095-4 0  9992,2 51854  53.2153 183.2094 0001531 100.0608 260.0557 15.08838664108548,6917.884,95.438,540.809,538.69,0.0
51854.0,STARLINK-3541,PAYLOAD,2024-02-10 14:22:25,15.08839894,0.0001495,53.2159,182.3167,121.6867,238.4271,7.7328e-05,9.43e-06,0.0,0 STARLINK-3541,1 51854U 22022C   24041.59890377  .00000943  00000-0  77328-4 0  9997,2 51854  53.2159 182.3167 0001495 121.6867 238.4271 15.08839894108571,6917.881,95.438,540.78,538.711,0.0
51854.0,STARLINK-3541,PAYLOAD,2024-02-10 15:57:48,15.08829349,0.0001276,53.2158,182.0183,114.9456,245.1669,0.0002551,3.773e-05,0.0,0 STARLINK-3541,1 51854U 22022C   24041.66514734  .00003773  00000-0  25510-3 0  9994,2 51854  53.2158 182.0183 0001276 114.9456 245.1669 15.08829349108582,6917.913,95.438,540.661,538.895,0.0
51854.0,STARLINK-3541,PAYLOAD,2024-02-11 14:13:12,15.08847408,0.000153,53.2174,177.8625,104.8788,255.2374,8.5321e-05,1.07e-05,0.0,0 STARLINK-3541,1 51854U 22022C   24042.59250044  .00001070  00000-0  85321-4 0  9993,2 51854  53.2174 177.8625 0001530 104.8788 255.2374 15.08847408108729,6917.858,95.437,540.781,538.664,0.0
51854.0,STARLINK-3541,PAYLOAD,2024-02-11 15:48:35,15.08848822,0.0001646,53.2172,177.5651,103.6655,256.4521,0.00016009,2.261e-05,0.0,0 STARLINK-3541,1 51854U 22022C   24042.65874077  .00002261  00000-0  16009-3 0  9997,2 51854  53.2172 177.5651 0001646 103.6655 256.4521 15.08848822108730,6917.853,95.437,540.857,538.58,0.0
51854.0,STARLINK-3541,PAYLOAD,2024-02-12 12:28:36,15.08842421,0.0001794,53.2176,173.6985,110.8385,249.2799,0.0001138,1.524e-05,0.0,0 STARLINK-3541,1 51854U 22022C   24043.51986301  .00001524  00000-0  11380-3 0  9995,2 51854  53.2176 173.6985 0001794 110.8385 249.2799 15.08842421108865,6917.873,95.437,540.979,538.497,0.0
51854.0,STARLINK-3541,PAYLOAD,2024-02-12 14:03:59,15.0884222,0.0001794,53.2178,173.4015,110.8478,249.2706,0.00010558,1.393e-05,0.0,0 STARLINK-3541,1 51854U 22022C   24043.58610301  .00001393  00000-0  10558-3 0  9996,2 51854  53.2178 173.4015 0001794 110.8478 249.2706 15.08842220108878,6917.874,95.437,540.98,538.498,0.0
51854.0,STARLINK-3541,PAYLOAD,2024-02-12 18:50:08,15.0884396,0.0001703,53.2174,172.5047,109.3003,250.8173,0.00015771,2.223e-05,0.0,0 STARLINK-3541,1 51854U 22022C   24043.78482132  .00002223  00000-0  15771-3 0  9992,2 51854  53.2174 172.5047 0001703 109.3003 250.8173 15.08843960108908,6917.868,95.437,540.911,538.555,0.0
51854.0,STARLINK-3541,PAYLOAD,2024-02-13 12:19:23,15.08835031,0.0001841,53.2163,169.2267,127.5518,232.5641,-0.00014503,-2.595e-05,0.0,0 STARLINK-3541,1 51854U 22022C   24044.51346539 -.00002595  00000-0 -14503-3 0  9990,2 51854  53.2163 169.2267 0001841 127.5518 232.5641 15.08835031109019,6917.896,95.438,541.034,538.487,0.0
51854.0,STARLINK-3541,PAYLOAD,2024-02-13 15:30:10,15.08831694,0.0001781,53.2168,168.6492,121.9126,238.204,-7.3686e-05,-1.46e-05,0.0,0 STARLINK-3541,1 51854U 22022C   24044.64595087 -.00001460  00000-0 -73686-4 0  9996,2 51854  53.2168 168.6492 0001781 121.9126 238.2040 15.08831694109032,6917.906,95.438,541.003,538.539,0.0
51854.0,STARLINK-3541,PAYLOAD,2024-02-14 01:02:28,15.08844716,0.0001408,53.2167,166.8612,86.0851,274.0302,5.7981e-05,6.35e-06,0.0,0 STARLINK-3541,1 51854U 22022C   24045.04338482  .00000635  00000-0  57981-4 0  9996,2 51854  53.2167 166.8612 0001408  86.0851 274.0302 15.08844716109091,6917.866,95.437,540.705,538.757,0.0
51854.0,STARLINK-3541,PAYLOAD,2024-02-14 13:45:33,15.08843703,0.0001415,53.2167,164.4811,75.515,284.5999,0.00016164,2.286e-05,0.0,0 STARLINK-3541,1 51854U 22022C   24045.57330874  .00002286  00000-0  16164-3 0  9992,2 51854  53.2167 164.4811 0001415  75.5150 284.5999 15.08843703109171,6917.869,95.437,540.713,538.755,0.0
51854.0,STARLINK-3541,PAYLOAD,2024-02-14 16:56:19,15.0885616,0.0001444,53.2169,163.8802,81.8824,278.2332,0.00030309,4.541e-05,0.0,0 STARLINK-3541,1 51854U 22022C   24045.70577830  .00004541  00000-0  30309-3 0  9995,2 51854  53.2169 163.8802 0001444  81.8824 278.2332 15.08856160109190,6917.831,95.437,540.695,538.697,0.0
51854.0,STARLINK-3541,PAYLOAD,2024-02-15 00:53:15,15.08833491,0.0001482,53.2181,162.3915,128.0248,232.0878,9.9559e-05,1.297e-05,0.0,0 STARLINK-3541,1 51854U 22022C   24046.03698880  .00001297  00000-0  99559-4 0  9999,2 51854  53.2181 162.3915 0001482 128.0248 232.0878 15.08833491109240,6917.9,95.438,540.791,538.74,0.0
51854.0,STARLINK-3541,PAYLOAD,2024-02-15 13:36:21,15.08830692,0.0001746,53.2172,160.0209,80.2976,279.8213,-5.5625e-05,-1.173e-05,0.0,0 STARLINK-3541,1 51854U 22022C   24046.56691971 -.00001173  00000-0 -55625-4 0  9992,2 51854  53.2172 160.0209 0001746  80.2976 279.8213 15.08830692109322,6917.909,95.438,540.982,538.566,0.0
51854.0,STARLINK-3541,PAYLOAD,2024-02-15 16:47:07,15.08842345,0.0001293,53.2161,159.4233,79.5585,280.5552,9.4552e-05,1.217e-05,0.0,0 STARLINK-3541,1 51854U 22022C   24046.69939267  .00001217  00000-0  94552-4 0  9998,2 51854  53.2161 159.4233 0001293  79.5585 280.5552 15.08842345109348,6917.873,95.437,540.633,538.844,0.0
51854.0,STARLINK-3541,PAYLOAD,2024-02-16 11:51:45,15.08844813,0.0001339,53.216,155.8585,76.9685,283.1456,0.00017869,2.557e-05,0.0,0 STARLINK-3541,1 51854U 22022C   24047.49427280  .00002557  00000-0  17869-3 0  9997,2 51854  53.2160 155.8585 0001339  76.9685 283.1456 15.08844813109467,6917.866,95.437,540.657,538.804,0.0
51854.0,STARLINK-3541,PAYLOAD,2024-02-16 13:27:07,15.08852338,0.0001202,53.2142,155.5598,92.8945,267.2185,0.00010532,1.389e-05,0.0,0 STARLINK-3541,1 51854U 22022C   24047.56050752  .00001389  00000-0  10532-3 0  9993,2 51854  53.2142 155.5598 0001202  92.8945 267.2185 15.08852338109477,6917.843,95.437,540.539,538.876,0.0
51854.0,STARLINK-3541,PAYLOAD,2024-02-17 11:42:32,15.08835733,0.0001618,53.2161,151.3976,93.8258,266.2919,0.00013194,1.812e-05,0.0,0 STARLINK-3541,1 51854U 22022C   24048.48787799  .00001812  00000-0  13194-3 0  9991,2 51854  53.2161 151.3976 0001618  93.8258 266.2919 15.08835733109611,6917.893,95.438,540.878,538.639,0.0
51854.0,STARLINK-3541,PAYLOAD,2024-02-17 13:17:55,15.08842288,0.0001536,53.2182,151.0975,100.6544,259.4621,0.00010284,1.349e-05,0.0,0 STARLINK-3541,1 51854U 22022C   24048.55411378  .00001349  00000-0  10284-3 0  9998,2 51854  53.2182 151.0975 0001536 100.6544 259.4621 15.08842288109622,6917.873,95.437,540.801,538.676,0.0
